NORAD_CAT_ID,OBJECT_NAME,OBJECT_TYPE,EPOCH,MEAN_MOTION,ECCENTRICITY,INCLINATION,RA_OF_ASC_NODE,ARG_OF_PERICENTER,MEAN_ANOMALY,BSTAR,MEAN_MOTION_DOT,MEAN_MOTION_DDOT,TLE_LINE0,TLE_LINE1,TLE_LINE2,SEMIMAJOR_AXIS,PERIOD,APOGEE,PERIGEE,DECAYED
53918.0,STARLINK-5012,PAYLOAD,2022-10-17 04:00:00,15.73236277,8.31e-05,53.216,143.1016,96.5281,278.5051,-0.00039874,-0.00056291,0.0,0 STARLINK-5012,1 53918U 22119AJ  22290.16667824 -.00056291  00000-0 -39874-3 0  9995,2 53918  53.2160 143.1016 0000831  96.5281 278.5051 15.73236277  3929,6727.792,91.531,350.216,349.098,0.0
53918.0,STARLINK-5012,PAYLOAD,2022-10-17 12:00:00,15.73206973,0.0001069,53.2163,141.4535,112.9822,351.0393,0.00041582,0.0005815999999999,0.0,0 STARLINK-5012,1 53918U 22119AJ  22290.50001157  .00058160  00000-0  41582-3 0  9998,2 53918  53.2163 141.4535 0001069 112.9822 351.0393 15.73206973  3989,6727.875,91.533,350.46,349.021,0.0
53918.0,STARLINK-5012,PAYLOAD,2022-10-17 14:00:01,15.73244763,0.0001132,53.2163,141.0385,113.6175,102.6324,-1.9519e-05,-3.363e-05,0.0,0 STARLINK-5012,1 53918U 22119AJ  22290.58334491 -.00003363  00000-0 -19519-4 0  9999,2 53918  53.2163 141.0385 0001132 113.6175 102.6324 15.73244763  1305,6727.768,91.531,350.394,348.871,0.0
53918.0,STARLINK-5012,PAYLOAD,2022-10-17 20:00:01,15.73219126,0.0001114,53.2165,139.806,100.7843,92.1768,-0.0001733,-0.00024889,0.0,0 STARLINK-5012,1 53918U 22119AJ  22290.83334491 -.00024889  00000-0 -17330-3 0  9991,2 53918  53.2165 139.8060 0001114 100.7843  92.1768 15.73219126  4034,6727.840999999999,91.532,350.455,348.956,0.0
53918.0,STARLINK-5012,PAYLOAD,2022-10-17 22:00:00,15.73219681,0.0001095999999999,53.2166,139.394,97.7273,207.4691,-0.0002363,-0.00033677,0.0,0 STARLINK-5012,1 53918U 22119AJ  22290.91667824 -.00033677  00000-0 -23630-3 0  9994,2 53918  53.2166 139.3940 0001096  97.7273 207.4691 15.73219681  1307,6727.839,91.532,350.441,348.967,0.0
53918.0,STARLINK-5012,PAYLOAD,2022-10-18 14:00:01,15.73156911,0.0001139999999999,53.2168,136.0934,107.5928,15.4465,0.00037472,0.00052199,0.0,0 STARLINK-5012,1 53918U 22119AJ  22291.58334491  .00052199  00000-0  37472-3 0  9996,2 53918  53.2168 136.0934 0001140 107.5928  15.4465 15.73156911  1305,6728.018,91.536,350.65,349.116,0.0
53918.0,STARLINK-5012,PAYLOAD,2022-10-18 20:00:01,15.73205202,0.0001024,53.2174,134.8383,98.1176,1.6354,-1.1563e-05,-2.242e-05,0.0,0 STARLINK-5012,1 53918U 22119AJ  22291.83334491 -.00002242  00000-0 -11563-4 0  9994,2 53918  53.2174 134.8383 0001024  98.1176   1.6354 15.73205202  4199,6727.88,91.533,350.434,349.056,0.0
53918.0,STARLINK-5012,PAYLOAD,2022-10-18 22:00:00,15.73204478,0.000101,53.2175,134.4262,98.0947,113.8919,-3.980600000000001e-07,-6.75e-06,0.0,0 STARLINK-5012,1 53918U 22119AJ  22291.91667824 -.00000675  00000-0 -39806-6 0  9992,2 53918  53.2175 134.4262 0001010  98.0947 113.8919 15.73204478  1309,6727.882,91.533,350.427,349.0680000000001,0.0
53918.0,STARLINK-5012,PAYLOAD,2022-10-19 06:00:00,15.73184616,7.56e-05,53.216,132.7955,102.9344,197.9041,0.00011611,0.00015695,0.0,0 STARLINK-5012,1 53918U 22119AJ  22292.25001157  .00015695  00000-0  11611-3 0  9998,2 53918  53.2160 132.7955 0000756 102.9344 197.9041 15.73184616  4252,6727.939,91.534,350.31300000000016,349.295,0.0
53918.0,STARLINK-5012,PAYLOAD,2022-10-19 14:00:01,15.73227829,8.32e-05,53.2163,131.1453,110.0881,279.6703,0.00032168,0.0004482,0.0,0 STARLINK-5012,1 53918U 22119AJ  22292.58334491  .00044820  00000-0  32168-3 0  9996,2 53918  53.2163 131.1453 0000832 110.0881 279.6703 15.73227829  1302,6727.816,91.532,350.241,349.121,0.0
53918.0,STARLINK-5012,PAYLOAD,2022-10-19 22:00:00,15.73237347,9.47e-05,53.2167,129.4878,96.6256,22.1185,-0.00015369,-0.00022166,0.0,0 STARLINK-5012,1 53918U 22119AJ  22292.91667824 -.00022166  00000-0 -15369-3 0  9997,2 53918  53.2167 129.4878 0000947  96.6256  22.1185 15.73237347  4369,6727.7890000000025,91.531,350.291,349.017,0.0
53918.0,STARLINK-5012,PAYLOAD,2022-10-20 14:00:01,15.73214794,0.0001336,53.2163,126.197,97.2341,199.4287,-0.00020947,-0.00029932,0.0,0 STARLINK-5012,1 53918U 22119AJ  22293.58334491 -.00029932  00000-0 -20947-3 0  9998,2 53918  53.2163 126.1970 0001336  97.2341 199.4287 15.73214794  1300,6727.853,91.532,350.617,348.819,0.0
53918.0,STARLINK-5012,PAYLOAD,2022-10-20 22:00:00,15.7317171,0.0001395999999999,53.216,124.5461,85.27799999999998,300.3225,0.00060211,0.00084635,0.0,0 STARLINK-5012,1 53918U 22119AJ  22293.91667824  .00084635  00000-0  60211-3 0  9991,2 53918  53.2160 124.5461 0001396  85.2780 300.3225 15.73171710  1309,6727.976,91.535,350.78,348.902,0.0
53918.0,STARLINK-5012,PAYLOAD,2022-10-21 06:00:00,15.73253053,0.0001104,53.2157,122.8983,93.2157,21.3134,-0.00048108,-0.00067746,0.0,0 STARLINK-5012,1 53918U 22119AJ  22294.25001157 -.00067746  00000-0 -48108-3 0  9997,2 53918  53.2157 122.8983 0001104  93.2157  21.3134 15.73253053  4571,6727.744000000002,91.53,350.352,348.866,0.0
53918.0,STARLINK-5012,PAYLOAD,2022-10-21 12:00:00,15.7320369,0.0001054999999999,53.2156,121.6603,100.4351,350.8429,0.00062604,0.00088181,0.0,0 STARLINK-5012,1 53918U 22119AJ  22294.50001157  .00088181  00000-0  62604-3 0  9996,2 53918  53.2156 121.6603 0001055 100.4351 350.8429 15.73203690  4612,6727.885,91.533,350.459,349.04,0.0
53918.0,STARLINK-5012,PAYLOAD,2022-10-21 14:00:01,15.73249672,9.990000000000004e-05,53.2157,121.2476,101.1394,102.3663,7.4525e-05,9.874e-05,0.0,0 STARLINK-5012,1 53918U 22119AJ  22294.58334491  .00009874  00000-0  74525-4 0  9992,2 53918  53.2157 121.2476 0000999 101.1394 102.3663 15.73249672  1301,6727.754,91.53,350.291,348.946,0.0
53918.0,STARLINK-5012,PAYLOAD,2022-10-21 20:00:01,15.73251986,9.59e-05,53.2156,120.0129,81.6991,98.5247,-0.00066128,-0.00092612,0.0,0 STARLINK-5012,1 53918U 22119AJ  22294.83334491 -.00092612  00000-0 -66128-3 0  9993,2 53918  53.2156 120.0129 0000959  81.6991  98.5247 15.73251986  4660,6727.746999999999,91.53,350.25699999999995,348.967,0.0
53918.0,STARLINK-5012,PAYLOAD,2022-10-21 22:00:00,15.73214195,9.62e-05,53.2157,119.6008,78.8099,213.6655,-0.00028553,-0.00040522,0.0,0 STARLINK-5012,1 53918U 22119AJ  22294.91667824 -.00040522  00000-0 -28553-3 0  9994,2 53918  53.2157 119.6008 0000962  78.8099 213.6655 15.73214195  1304,6727.855,91.532,350.367,349.07199999999995,0.0
53918.0,STARLINK-5012,PAYLOAD,2022-10-22 12:00:00,15.7314807,0.0001217999999999,53.2156,116.7118,90.1942,267.8942,0.00043217,0.00060333,0.0,0 STARLINK-5012,1 53918U 22119AJ  22295.50001157  .00060333  00000-0  43217-3 0  9995,2 53918  53.2156 116.7118 0001218  90.1942 267.8942 15.73148070  4763,6728.043000000002,91.536,350.728,349.089,0.0
53918.0,STARLINK-5012,PAYLOAD,2022-10-22 14:00:01,15.73164374,0.0001222,53.2156,116.2999,88.439,21.8665,0.00030464,0.00042284,0.0,0 STARLINK-5012,1 53918U 22119AJ  22295.58334491  .00042284  00000-0  30464-3 0  9998,2 53918  53.2156 116.2999 0001222  88.4390  21.8665 15.73164374  1309,6727.996999999999,91.535,350.684,349.04,0.0
53918.0,STARLINK-5012,PAYLOAD,2022-10-22 22:00:00,15.73183249,0.0001186,53.2151,114.6522,72.5918,126.6337,0.00088331,0.00125118,0.0,0 STARLINK-5012,1 53918U 22119AJ  22295.91667824  .00125118  00000-0  88331-3 0  9998,2 53918  53.2151 114.6522 0001186  72.5918 126.6337 15.73183249  1309,6727.943,91.534,350.606,349.01,0.0
53918.0,STARLINK-5012,PAYLOAD,2022-10-23 06:00:00,15.73304807,9.77e-05,53.2148,113.0007,83.0273,205.1623,-0.00016798,-0.00024232,0.0,0 STARLINK-5012,1 53918U 22119AJ  22296.25001157 -.00024232  00000-0 -16798-3 0  9992,2 53918  53.2148 113.0007 0000977  83.0273 205.1623 15.73304807  4886,6727.596,91.527,350.119,348.80400000000014,0.0
53918.0,STARLINK-5012,PAYLOAD,2022-10-23 12:00:00,15.732694,9.5e-05,53.2149,111.7629,89.0613,175.8895,-0.00025109,-0.00035812,0.0,0 STARLINK-5012,1 53918U 22119AJ  22296.50001157 -.00035812  00000-0 -25109-3 0  9992,2 53918  53.2149 111.7629 0000950  89.0613 175.8895 15.73269400  4925,6727.696999999999,91.529,350.201,348.923,0.0
53918.0,STARLINK-5012,PAYLOAD,2022-10-23 14:00:01,15.73284971,9.46e-05,53.215,111.3511,84.6673,292.5293,-0.00061345,-0.00086145,0.0,0 STARLINK-5012,1 53918U 22119AJ  22296.58334491 -.00086145  00000-0 -61345-3 0  9997,2 53918  53.2150 111.3511 0000946  84.6673 292.5293 15.73284971  1303,6727.653,91.528,350.154,348.881,0.0
53918.0,STARLINK-5012,PAYLOAD,2022-10-23 22:00:00,15.73213963,0.0001,53.2151,109.703,66.8594,39.3391,-0.00041309,-0.00058227,0.0,0 STARLINK-5012,1 53918U 22119AJ  22296.91667824 -.00058227  00000-0 -41309-3 0  9991,2 53918  53.2151 109.7030 0001000  66.8594  39.3391 15.73213963  1306,6727.855,91.532,350.39300000000014,349.048,0.0
53918.0,STARLINK-5012,PAYLOAD,2022-10-24 06:00:00,15.73159661,8.950000000000001e-05,53.2152,108.0515,71.6806,123.4569,-0.00062116,-0.00086748,0.0,0 STARLINK-5012,1 53918U 22119AJ  22297.25001157 -.00086748  00000-0 -62116-3 0  9998,2 53918  53.2152 108.0515 0000895  71.6806 123.4569 15.73159661  5049,6728.01,91.536,350.477,349.273,0.0
53918.0,STARLINK-5012,PAYLOAD,2022-10-24 14:00:01,15.73097105,9.03e-05,53.2151,106.4023,72.0844,211.8844,0.00029576,0.00040908,0.0,0 STARLINK-5012,1 53918U 22119AJ  22297.58334491  .00040908  00000-0  29576-3 0  9993,2 53918  53.2151 106.4023 0000903  72.0844 211.8844 15.73097105  1308,6728.189,91.539,350.661,349.446,0.0
53918.0,STARLINK-5012,PAYLOAD,2022-10-24 20:00:01,15.73074274,0.0001113,53.2149,105.1668,59.6384,200.9501,0.0013742,0.00195743,0.0,0 STARLINK-5012,1 53918U 22119AJ  22297.83334491  .00195743  00000-0  13742-2 0  9996,2 53918  53.2149 105.1668 0001113  59.6384 200.9501 15.73074274  5136,6728.254,91.54,350.86800000000005,349.37,0.0
53918.0,STARLINK-5012,PAYLOAD,2022-10-24 22:00:00,15.73094089,0.0001115,53.2146,104.7546,58.6872,314.1001,0.0014056,0.00200515,0.0,0 STARLINK-5012,1 53918U 22119AJ  22297.91667824  .00200515  00000-0  14056-2 0  9997,2 53918  53.2146 104.7546 0001115  58.6872 314.1001 15.73094089  1300,6728.196999999999,91.539,350.81199999999984,349.31199999999984,0.0
